[{"OBJECT_NAME":"STARLINK-6075","OBJECT_ID":"2023-046K","EPOCH":"2026-03-09T23:11:06.102240","MEAN_MOTION":15.02530441,"ECCENTRICITY":0.00013026,"INCLINATION":43.0018,"RA_OF_ASC_NODE":157.4403,"ARG_OF_PERICENTER":269.7167,"MEAN_ANOMALY":90.3526,"EPHEMERIS_TYPE":0,"CLASSIFICATION_TYPE":"U","NORAD_CAT_ID":56102,"ELEMENT_SET_NO":999,"REV_AT_EPOCH":16210,"BSTAR":-1.9428073e-5,"MEAN_MOTION_DOT":-4.66e-6,"MEAN_MOTION_DDOT":0},{"OBJECT_NAME":"CZ-4B DEB","OBJECT_ID":"1999-057P","EPOCH":"2026-03-09T10:31:29.691840","MEAN_MOTION":14.91091708,"ECCENTRICITY":0.00558084,"INCLINATION":98.442,"RA_OF_ASC_NODE":235.9963,"ARG_OF_PERICENTER":58.1221,"MEAN_ANOMALY":355.8675,"EPHEMERIS_TYPE":0,"CLASSIFICATION_TYPE":"U","NORAD_CAT_ID":26127,"ELEMENT_SET_NO":999,"REV_AT_EPOCH":36984,"BSTAR":0.001630359,"MEAN_MOTION_DOT":0.00016608,"MEAN_MOTION_DDOT":0}]
